STARLINK-32428          
1 61666U 24193F   24318.50001157 -.01445060  00000+0 -21384-1 0  9991
2 61666  53.1589 171.7596 0000860  87.4901 304.6302 15.57701233  3990
STARLINK-32414          
1 61667U 24193G   24318.50001157 -.01445620  00000+0 -21394-1 0  9995
2 61667  53.1589 171.7553 0000766  84.7087 309.3283 15.57701099  3994
STARLINK-32441          
1 61668U 24193H   24318.50001157 -.01446026  00000+0 -21401-1 0  9996
2 61668  53.1590 171.7513 0000673  95.7069 300.2464 15.57701512  3948
STARLINK-32400          
1 61669U 24193J   24318.50001157 -.01445455  00000+0 -21391-1 0  9990
2 61669  53.1590 171.7471 0000800  79.6899 318.1799 15.57701155  3993
STARLINK-32449          
1 61670U 24193K   24318.50001157 -.01447191  00000+0 -21419-1 0  9992
2 61670  53.1590 171.7437 0000784  97.0257 302.7606 15.57702122  3946
STARLINK-32453          
1 61671U 24193L   24318.50001157 -.01446788  00000+0 -21412-1 0  9997
2 61671  53.1589 171.7404 0000817  98.4929 303.2097 15.57702264  3944
STARLINK-32443          
1 61672U 24193M   24318.50001157 -.01445516  00000+0 -21391-1 0  9992
2 61672  53.1589 171.7364 0000909  86.5439 317.0753 15.57701475  3941
STARLINK-32417          
1 61673U 24193N   24318.50001157 -.01445663  00000+0 -21393-1 0  9998
2 61673  53.1589 171.7327 0000966  85.7067 319.8290 15.57701513  3996
STARLINK-32326          
1 61674U 24193P   24318.50001157 -.01445772  00000+0 -21395-1 0  9992
2 61674  53.1590 171.7280 0000928  86.5408 320.9114 15.57701586  3902
STARLINK-32294          
1 61675U 24193Q   24318.50001157 -.01446322  00000+0 -21403-1 0  9995
2 61675  53.1590 171.7239 0001056  77.8599 331.5079 15.57701827  3999
STARLINK-32309          
1 61676U 24193R   24318.50001157 -.01446754  00000+0 -21410-1 0  9993
2 61676  53.1590 171.7172 0001041  76.3094 336.8912 15.57702111  3906
STARLINK-32323          
1 61677U 24193S   24318.50001157 -.01446267  00000+0 -21403-1 0  9995
2 61677  53.1589 171.7205 0000927  89.5125 321.7727 15.57701815  3890
STARLINK-32363          
1 61678U 24193T   24318.50001157 -.01446564  00000+0 -21407-1 0  9990
2 61678  53.1590 171.7126 0001029  76.0018 339.1154 15.57702055  3952
STARLINK-32395          
1 61679U 24193U   24318.50001157 -.01447064  00000+0 -21417-1 0  9998
2 61679  53.1591 171.7078 0000780  88.2000 328.8346 15.57702038  3947
STARLINK-32412          
1 61680U 24193V   24318.50001157 -.01447018  00000+0 -21416-1 0  9998
2 61680  53.1591 171.7000 0000820  85.2678 335.5998 15.57701993  3999
STARLINK-32426          
1 61681U 24193W   24318.50001157 -.01446401  00000+0 -21406-1 0  9993
2 61681  53.1591 171.7043 0000824  81.7774 337.1737 15.57701714  3944
STARLINK-32429          
1 61682U 24193X   24318.50001157 -.01447383  00000+0 -21421-1 0  9991
2 61682  53.1591 171.6956 0000902  87.2567 335.5270 15.57702567  3957
SHENZHOU-19 (SZ-19)     
1 61683U 24194A   24316.57366550  .00050476  00000+0  61819-3 0  9996
2 61683  41.4621 264.1120 0008528 318.0667  41.9518 15.59483539202244
2024-194B               
1 61684U 24194B   24304.16570017 -.00002234  70709-5  00000+0 0  9994
2 61684  41.3050 339.9579 0264171 116.1457 292.8724 15.65002779    52
2024-194C               
1 61685U 24194C   24304.42790892 -.00002334  73895-5  00000+0 0  9999
2 61685  41.5846 337.6433 0197112 136.4247 338.0813 15.80520491    82
STARLINK-11335 [DTC]    
1 61687U 24195A   24318.50001157 -.00956621  00000+0 -55993-2 0  9999
2 61687  53.1645 240.1405 0000527  88.5628 253.4165 15.80130700  3410
STARLINK-11344 [DTC]    
1 61688U 24195B   24318.50001157 -.00918470  00000+0 -48762-2 0  9996
2 61688  53.1643 240.1161 0000527  80.2975 273.4425 15.82122168  3425
STARLINK-11312 [DTC]    
1 61689U 24195C   24318.50001157 -.00870984  00000+0 -42324-2 0  9992
2 61689  53.1643 240.1018 0000741  77.1939 283.4503 15.83862977  3428
STARLINK-11340 [DTC]    
1 61690U 24195D   24318.50001157 -.00077847  00000+0 -34309-3 0  9996
2 61690  53.1640 240.0969 0001630 105.4614 257.4351 15.83836772  3431
STARLINK-11339 [DTC]    
1 61691U 24195E   24318.50001157  .00024211  00000+0  10996-3 0  9998
2 61691  53.1639 240.0759 0001223  98.0042 274.9710 15.83787978  3433
STARLINK-11315 [DTC]    
1 61692U 24195F   24317.91667824 -.00063051  00000+0 -27660-3 0  9995
2 61692  53.1646 243.0212 0001547  93.5742 186.8743 15.83851785  3340
STARLINK-11366 [DTC]    
1 61693U 24195G   24318.16667824 -.00061422  00000+0 -26937-3 0  9990
2 61693  53.1645 241.7486 0001331  80.3978 194.0423 15.83848561  3371
STARLINK-11348 [DTC]    
1 61694U 24195H   24318.50001157 -.00008763  00000+0 -35469-4 0  9990
2 61694  53.1639 240.0588 0000998 100.1821 281.0607 15.83824647  3433
STARLINK-11327 [DTC]    
1 61695U 24195J   24318.50001157  .00062359  00000+0  27699-3 0  9995
2 61695  53.1637 240.0541 0001053  96.9501 286.6124 15.83782539  3428
STARLINK-11341 [DTC]    
1 61696U 24195K   24317.91667824  .00097684  00000+0  43079-3 0  9998
2 61696  53.1645 242.9773 0001165  78.7519 222.7811 15.83759631  3349
STARLINK-11346 [DTC]    
1 61697U 24195L   24318.50001157  .00013748  00000+0  63886-4 0  9994
2 61697  53.1641 240.0324 0001088  86.2751 307.9004 15.83797578  3435
STARLINK-11336 [DTC]    
1 61698U 24195M   24318.50001157  .00089135  00000+0  39384-3 0  9993
2 61698  53.1637 240.0246 0000958  83.9965 313.6706 15.83755327  3428
STARLINK-11296 [DTC]    
1 61699U 24195N   24318.50001157  .00082891  00000+0  36675-3 0  9996
2 61699  53.1636 240.0162 0001179 101.3053 300.3580 15.83754550  3435
STARLINK-32349          
1 61700U 24195P   24318.50001157 -.01280618  00000+0 -90545-2 0  9994
2 61700  53.1625 240.1502 0001036  98.2101 237.3526 15.75868197  3270
STARLINK-32461          
1 61701U 24195Q   24318.16667824 -.01218820  00000+0 -84330-2 0  9997
2 61701  53.1627 241.8060 0000856  95.2185 149.9608 15.76664905  3224
STARLINK-32299          
1 61702U 24195R   24318.50001157 -.01300700  00000+0 -92661-2 0  9992
2 61702  53.1626 240.1417 0000857  84.8868 254.9153 15.75739937  3437
STARLINK-32335          
1 61703U 24195S   24318.50001157 -.01326894  00000+0 -95105-2 0  9991
2 61703  53.1622 240.1370 0000635  96.8341 245.1420 15.75657095  3438
STARLINK-32387          
1 61704U 24195T   24318.50001157 -.01360854  00000+0 -98507-2 0  9995
2 61704  53.1623 240.1283 0000594  97.5212 248.6984 15.75503228  3275
STARLINK-32515          
1 61705U 24195U   24318.50001157 -.01376677  00000+0 -10005-1 0  9992
2 61705  53.1621 240.1240 0000662  77.7307 270.5500 15.75444846  3287
STARLINK-32533          
1 61706U 24195V   24318.50001157 -.01349902  00000+0 -97210-2 0  9998
2 61706  53.1625 240.1332 0000873  78.5197 265.5573 15.75595306  3220
STARLINK-32376          
1 61707U 24196A   24318.50001157 -.00929956  00000+0 -41612-2 0  9997
2 61707  53.1530 184.6915 0000594 106.4766  72.9360 15.85708509  3381
STARLINK-32402          
1 61708U 24196B   24318.50001157 -.00925027  00000+0 -41356-2 0  9998
2 61708  53.1524 184.6857 0000787 100.1133  81.7073 15.85712460  3394
STARLINK-32314          
1 61709U 24196C   24318.16667824 -.00965852  00000+0 -41815-2 0  9990
2 61709  53.1528 186.3610 0001085  61.4129  21.2099 15.86461095  3103
STARLINK-32404          
1 61710U 24196D   24318.50001157 -.00930047  00000+0 -41594-2 0  9993
2 61710  53.1526 184.6800 0000902  91.1419  93.6370 15.85716810  3386
STARLINK-32312          
1 61711U 24196E   24318.16667824 -.00969701  00000+0 -41949-2 0  9998
2 61711  53.1527 186.3503 0000973  54.7536  32.9923 15.86487126  3331
STARLINK-32343          
1 61712U 24196F   24318.16667824 -.00962811  00000+0 -41657-2 0  9990
2 61712  53.1529 186.3555 0000914  60.6684  24.6342 15.86468327  3106
STARLINK-32467          
1 61713U 24196G   24317.91667824 -.00996921  00000+0 -42100-2 0  9996
2 61713  53.1530 187.6081 0000679  67.6427  33.8985 15.87040999  3070
STARLINK-32440          
1 61714U 24196H   24317.91667824 -.01011304  00000+0 -42711-2 0  9999
2 61714  53.1531 187.5887 0000601  74.7679  36.3400 15.87074354  2989
STARLINK-32459          
1 61715U 24196J   24317.91667824 -.01001616  00000+0 -42302-2 0  9991
2 61715  53.1529 187.6011 0000679  71.9781  32.8598 15.87050414  3199
STARLINK-32465          
1 61716U 24196K   24317.91667824 -.01006490  00000+0 -42499-2 0  9994
2 61716  53.1530 187.5957 0000809  58.3859  49.3279 15.87064950  3199
STARLINK-32457          
1 61717U 24196L   24318.50001157 -.01023411  00000+0 -46062-2 0  9994
2 61717  53.1524 184.6285 0000694  83.2493 126.4317 15.85814752  3391
STARLINK-32591          
1 61718U 24196M   24318.50001157 -.01018423  00000+0 -45828-2 0  9991
2 61718  53.1525 184.6340 0000557 108.6410  98.4684 15.85808118  3387
STARLINK-32344          
1 61719U 24196N   24318.50001157 -.01023550  00000+0 -46056-2 0  9993
2 61719  53.1524 184.6236 0000614  90.3457 121.7665 15.85821287  3384
STARLINK-32322          
1 61720U 24196P   24318.50001157 -.01030924  00000+0 -46409-2 0  9990
2 61720  53.1521 184.6120 0000562  88.9119 128.5335 15.85830515  3399
STARLINK-32469          
1 61721U 24196Q   24318.50001157 -.01033259  00000+0 -46536-2 0  9996
2 61721  53.1523 184.6177 0000590  97.8200 117.1179 15.85826387  3139
STARLINK-32438          
1 61722U 24196R   24318.50001157 -.01036345  00000+0 -46695-2 0  9992
2 61722  53.1520 184.6056 0000528  89.0802 131.5352 15.85825825  3392
STARLINK-32540          
1 61723U 24196S   24312.16667824 -.00540848  11164-3 -10070-2 0  9990
2 61723  53.1555 216.8704 0000911 121.4312 142.4723 16.00262835  2220
STARLINK-32528          
1 61724U 24196T   24318.50001157 -.01042754  00000+0 -47039-2 0  9998
2 61724  53.1519 184.5982 0000622  97.9683 126.0938 15.85816691  3063
STARLINK-32573          
1 61725U 24196U   24317.91667824 -.01103852  00000+0 -46713-2 0  9997
2 61725  53.1526 187.5372 0000799  63.7288  72.1026 15.87255417  3306
STARLINK-32478          
1 61726U 24196V   24317.91667824 -.01105943  00000+0 -46779-2 0  9993
2 61726  53.1521 187.5313 0000893  62.6920  75.7075 15.87269090  3140
